NORAD_CAT_ID,OBJECT_NAME,OBJECT_TYPE,EPOCH,MEAN_MOTION,ECCENTRICITY,INCLINATION,RA_OF_ASC_NODE,ARG_OF_PERICENTER,MEAN_ANOMALY,BSTAR,MEAN_MOTION_DOT,MEAN_MOTION_DDOT,TLE_LINE0,TLE_LINE1,TLE_LINE2,SEMIMAJOR_AXIS,PERIOD,APOGEE,PERIGEE,DECAYED
51748.0,STARLINK-3501,PAYLOAD,2022-07-08 14:00:01,15.088305900000002,0.0002054,53.2163,205.0972,42.172,198.4024,0.00022123,3.234e-05,0.0,0 STARLINK-3501,1 51748U 22016AL  22189.58334491  .00003234  00000-0  22123-3 0  9990,2 51748  53.2163 205.0972 0002054  42.1720 198.4024 15.08830590  1300,6917.909000000002,95.438,541.195,538.3530000000002,0.0
51748.0,STARLINK-3501,PAYLOAD,2022-07-08 22:00:01,15.08810491,0.0001871,53.2164,203.5991,47.713,204.5176,0.0027585,0.00043852,0.0,0 STARLINK-3501,1 51748U 22016AL  22189.91668981  .00043852  00000-0  27585-2 0  9997,2 51748  53.2164 203.5991 0001871  47.7130 204.5176 15.08810491  1302,6917.971,95.439,541.13,538.5409999999998,0.0
51748.0,STARLINK-3501,PAYLOAD,2022-07-09 08:00:01,15.08835341,0.0002074,53.2163,201.7306,45.3573,311.2857,-0.00056155,-9.213e-05,0.0,0 STARLINK-3501,1 51748U 22016AL  22190.33334491 -.00009213  00000-0 -56155-3 0  9992,2 51748  53.2163 201.7306 0002074  45.3573 311.2857 15.08835341 22566,6917.895,95.438,541.194,538.325,0.0
51748.0,STARLINK-3501,PAYLOAD,2022-07-09 14:00:01,15.08839372,0.0002055,53.2157,200.6082,43.7517,231.5742,-0.00067168,-0.00010962,0.0,0 STARLINK-3501,1 51748U 22016AL  22190.58334491 -.00010962  00000-0 -67168-3 0  9998,2 51748  53.2157 200.6082 0002055  43.7517 231.5742 15.08839372  1301,6917.882,95.438,541.169,538.326,0.0
51748.0,STARLINK-3501,PAYLOAD,2022-07-09 20:00:01,15.088184699999998,0.0001904,53.2158,199.4846,48.1204,145.9056,0.0015279999999999,0.000241,0.0,0 STARLINK-3501,1 51748U 22016AL  22190.83334491  .00024100  00000-0  15280-2 0  9990,2 51748  53.2158 199.4846 0001904  48.1204 145.9056 15.08818470  1301,6917.946,95.439,541.128,538.494,0.0
51748.0,STARLINK-3501,PAYLOAD,2022-07-10 14:00:01,15.088460500000002,0.0002088,53.2149,196.1191,45.2812,264.8079,-0.001226,-0.00019751,0.0,0 STARLINK-3501,1 51748U 22016AL  22191.58334491 -.00019751  00000-0 -12260-2 0  9996,2 51748  53.2149 196.1191 0002088  45.2812 264.8079 15.08846050 22758,6917.861999999999,95.437,541.1709999999998,538.2819999999998,0.0
51748.0,STARLINK-3501,PAYLOAD,2022-07-10 22:00:00,15.08815504,0.0001968,53.2149,194.6212,51.7242,269.9675,0.0027312,0.00043418,0.0,0 STARLINK-3501,1 51748U 22016AL  22191.91667824  .00043418  00000-0  27312-2 0  9991,2 51748  53.2149 194.6212 0001968  51.7242 269.9675 15.08815504  1306,6917.955,95.439,541.182,538.4590000000002,0.0
51748.0,STARLINK-3501,PAYLOAD,2022-07-11 06:00:00,15.08847503,0.0002139,53.2148,193.1264,48.8311,284.447,-0.0012334,-0.00019869,0.0,0 STARLINK-3501,1 51748U 22016AL  22192.25001157 -.00019869  00000-0 -12334-2 0  9993,2 51748  53.2148 193.1264 0002139  48.8311 284.4470 15.08847503 22853,6917.857,95.437,541.202,538.243,0.0
51748.0,STARLINK-3501,PAYLOAD,2022-07-11 14:00:01,15.08854048,0.0002157,53.2144,191.6298,46.4871,298.3803,-0.001539,-0.00024708,0.0,0 STARLINK-3501,1 51748U 22016AL  22192.58334491 -.00024708  00000-0 -15390-2 0  9992,2 51748  53.2144 191.6298 0002157  46.4871 298.3803 15.08854048  1307,6917.837,95.437,541.195,538.21,0.0
51748.0,STARLINK-3501,PAYLOAD,2022-07-11 22:00:00,15.08822792,0.000206,53.2146,190.1319,52.8467,303.6294,0.002727,0.0004336,0.0,0 STARLINK-3501,1 51748U 22016AL  22192.91667824  .00043360  00000-0  27270-2 0  9991,2 51748  53.2146 190.1319 0002060  52.8467 303.6294 15.08822792  1307,6917.933000000001,95.439,541.2230000000002,538.373,0.0
51748.0,STARLINK-3501,PAYLOAD,2022-07-12 14:00:01,15.08878073,0.0002207,53.2146,187.1403,46.8697,332.8005,-0.0041562,-0.00065901,0.0,0 STARLINK-3501,1 51748U 22016AL  22193.58334491 -.00065901  00000-0 -41562-2 0  9993,2 51748  53.2146 187.1403 0002207  46.8697 332.8005 15.08878073 23062,6917.764,95.435,541.156,538.102,0.0
51748.0,STARLINK-3501,PAYLOAD,2022-07-12 22:00:00,15.08811755,0.0002066,53.2149,185.6424,51.9297,339.3623,0.0027329,0.00043441,0.0,0 STARLINK-3501,1 51748U 22016AL  22193.91667824  .00043441  00000-0  27329-2 0  9997,2 51748  53.2149 185.6424 0002066  51.9297 339.3623 15.08811755  1302,6917.967,95.439,541.261,538.4019999999998,0.0
51748.0,STARLINK-3501,PAYLOAD,2022-07-13 06:00:00,15.08840547,0.0002267,53.215,184.1478,48.8331,354.0399,-0.00083955,-0.00013626,0.0,0 STARLINK-3501,1 51748U 22016AL  22194.25001157 -.00013626  00000-0 -83955-3 0  9998,2 51748  53.2150 184.1478 0002267  48.8331 354.0399 15.08840547 23167,6917.879,95.438,541.312,538.175,0.0
51748.0,STARLINK-3501,PAYLOAD,2022-07-13 14:00:01,15.08854308,0.0002242,53.2152,182.6509,47.2352,7.2213,-0.001668,-0.00026748,0.0,0 STARLINK-3501,1 51748U 22016AL  22194.58334491 -.00026748  00000-0 -16680-2 0  9993,2 51748  53.2152 182.6509 0002242  47.2352   7.2213 15.08854308  1300,6917.837,95.437,541.253,538.151,0.0
51748.0,STARLINK-3501,PAYLOAD,2022-07-13 22:00:00,15.08836241,0.0002116,53.2156,181.1531,52.205,13.8524,-0.00056998,-9.347e-05,0.0,0 STARLINK-3501,1 51748U 22016AL  22194.91667824 -.00009347  00000-0 -56998-3 0  9992,2 51748  53.2156 181.1531 0002116  52.2050  13.8524 15.08836241  1308,6917.892,95.438,541.221,538.293,0.0
51748.0,STARLINK-3501,PAYLOAD,2022-07-14 08:00:01,15.08806887,0.0002285,53.2161,179.2847,46.8229,123.7233,0.0018234,0.00028825,0.0,0 STARLINK-3501,1 51748U 22016AL  22195.33334491  .00028825  00000-0  18234-2 0  9990,2 51748  53.2161 179.2847 0002285  46.8229 123.7233 15.08806887 23323,6917.982,95.44,541.427,538.266,0.0
51748.0,STARLINK-3501,PAYLOAD,2022-07-14 14:00:01,15.08838853,0.0002229,53.216,178.1617,47.4258,41.7867,-0.0018685,-0.00029903,0.0,0 STARLINK-3501,1 51748U 22016AL  22195.58334491 -.00029903  00000-0 -18685-2 0  9997,2 51748  53.2160 178.1617 0002229  47.4258  41.7867 15.08838853  1306,6917.884,95.438,541.2909999999998,538.207,0.0
51748.0,STARLINK-3501,PAYLOAD,2022-07-14 22:00:00,15.08818194,0.0002133,53.2165,176.6641,53.198,47.5975,0.0019469,0.00030815,0.0,0 STARLINK-3501,1 51748U 22016AL  22195.91667824  .00030815  00000-0  19469-2 0  9996,2 51748  53.2165 176.6641 0002133  53.1980  47.5975 15.08818194  1301,6917.946999999999,95.439,541.288,538.336,0.0
51748.0,STARLINK-3501,PAYLOAD,2022-07-15 06:00:00,15.08832701,0.0002306,53.2166,175.1696,49.3143,63.0644,-0.00037498,-6.25e-05,0.0,0 STARLINK-3501,1 51748U 22016AL  22196.25001157 -.00006250  00000-0 -37498-3 0  9996,2 51748  53.2166 175.1696 0002306  49.3143  63.0644 15.08832701 23463,6917.903,95.438,541.363,538.172,0.0
51748.0,STARLINK-3501,PAYLOAD,2022-07-15 14:00:01,15.08854963,0.0002239,53.2167,173.6726,49.7618,74.2009,-0.0017878,-0.00028641,0.0,0 STARLINK-3501,1 51748U 22016AL  22196.58334491 -.00028641  00000-0 -17878-2 0  9999,2 51748  53.2167 173.6726 0002239  49.7618  74.2009 15.08854963  1309,6917.835,95.437,541.249,538.151,0.0
51748.0,STARLINK-3501,PAYLOAD,2022-07-15 22:00:00,15.08807493,0.0002304,53.2172,172.1651,49.8851,85.6712,0.0029486,0.00046911,0.0,0 STARLINK-3501,1 51748U 22016AL  22196.91667824  .00046911  00000-0  29486-2 0  9991,2 51748  53.2172 172.1651 0002304  49.8851  85.6712 15.08807493  1302,6917.98,95.44,541.439,538.251,0.0
51748.0,STARLINK-3501,PAYLOAD,2022-07-16 06:00:00,15.08845817,0.0002299,53.2171,170.6809,50.8819,96.2854,0.00011102,1.479e-05,0.0,0 STARLINK-3501,1 51748U 22016AL  22197.25001157  .00001479  00000-0  11102-3 0  9997,2 51748  53.2171 170.6809 0002299  50.8819  96.2854 15.08845817 23613,6917.863,95.437,541.318,538.137,0.0
51748.0,STARLINK-3501,PAYLOAD,2022-07-16 14:00:01,15.08878789,0.000217,53.2169,169.1836,51.4206,107.3516,-0.0045686,-0.00072347,0.0,0 STARLINK-3501,1 51748U 22016AL  22197.58334491 -.00072347  00000-0 -45686-2 0  9990,2 51748  53.2169 169.1836 0002170  51.4206 107.3516 15.08878789  1303,6917.762,95.435,541.128,538.126,0.0
51748.0,STARLINK-3501,PAYLOAD,2022-07-16 22:00:00,15.08834566,0.0002052,53.2172,167.6866,56.2322,114.1496,0.0013229,0.00020826,0.0,0 STARLINK-3501,1 51748U 22016AL  22197.91667824  .00020826  00000-0  13229-2 0  9997,2 51748  53.2172 167.6866 0002052  56.2322 114.1496 15.08834566  1302,6917.897,95.438,541.182,538.342,0.0
51748.0,STARLINK-3501,PAYLOAD,2022-07-17 14:00:01,15.08845576,0.000207,53.2166,164.6949,52.0164,141.4678,-0.0017479,-0.00028003,0.0,0 STARLINK-3501,1 51748U 22016AL  22198.58334491 -.00028003  00000-0 -17479-2 0  9990,2 51748  53.2166 164.6949 0002070  52.0164 141.4678 15.08845576 23810,6917.863,95.437,541.16,538.2959999999998,0.0
51748.0,STARLINK-3501,PAYLOAD,2022-07-17 22:00:00,15.08839604,0.0002033,53.2168,163.1981,57.6289,147.444,0.00090118,0.00014083,0.0,0 STARLINK-3501,1 51748U 22016AL  22198.91667824  .00014083  00000-0  90118-3 0  9999,2 51748  53.2168 163.1981 0002033  57.6289 147.4440 15.08839604  1308,6917.882,95.438,541.153,538.34,0.0
51748.0,STARLINK-3501,PAYLOAD,2022-07-18 06:00:00,15.08831584,0.0002207,53.2166,161.7035,52.1044,164.5704,0.0013038,0.00020518,0.0,0 STARLINK-3501,1 51748U 22016AL  22199.25001157  .00020518  00000-0  13038-2 0  9993,2 51748  53.2166 161.7035 0002207  52.1044 164.5704 15.08831584 23915,6917.906,95.438,541.298,538.244,0.0
51748.0,STARLINK-3501,PAYLOAD,2022-07-18 14:00:01,15.08861882,0.0002099,53.2163,160.20600000000005,53.8046,174.4628,-0.00161,-0.00025836,0.0,0 STARLINK-3501,1 51748U 22016AL  22199.58334491 -.00025836  00000-0 -16100-2 0  9992,2 51748  53.2163 160.2060 0002099  53.8046 174.4628 15.08861882  1301,6917.814,95.436,541.131,538.226,0.0
51748.0,STARLINK-3501,PAYLOAD,2022-07-18 22:00:00,15.08870476,0.0002047,53.2163,158.7092,58.5094,181.3627,-0.0025028,-0.00039934,0.0,0 STARLINK-3501,1 51748U 22016AL  22199.91667824 -.00039934  00000-0 -25028-2 0  9991,2 51748  53.2163 158.7092 0002047  58.5094 181.3627 15.08870476  1301,6917.7869999999975,95.436,541.068,538.236,0.0
